[{"OBJECT_NAME":"STARLINK-6369","OBJECT_ID":"2023-099AY","EPOCH":"2026-03-09T22:00:01.999584","MEAN_MOTION":15.11990276,"ECCENTRICITY":0.00024259,"INCLINATION":43.0006,"RA_OF_ASC_NODE":221.4396,"ARG_OF_PERICENTER":272.2274,"MEAN_ANOMALY":92.7048,"EPHEMERIS_TYPE":0,"CLASSIFICATION_TYPE":"U","NORAD_CAT_ID":57374,"ELEMENT_SET_NO":999,"REV_AT_EPOCH":562,"BSTAR":0.0064958778,"MEAN_MOTION_DOT":0.00115097,"MEAN_MOTION_DDOT":0},{"OBJECT_NAME":"ICEYE-X59","OBJECT_ID":"2025-276CQ","EPOCH":"2026-03-09T10:36:55.321344","MEAN_MOTION":15.13098076,"ECCENTRICITY":0.00031789,"INCLINATION":97.426,"RA_OF_ASC_NODE":143.501,"ARG_OF_PERICENTER":13.4208,"MEAN_ANOMALY":346.7107,"EPHEMERIS_TYPE":0,"CLASSIFICATION_TYPE":"U","NORAD_CAT_ID":66752,"ELEMENT_SET_NO":999,"REV_AT_EPOCH":1526,"BSTAR":0.00038489192,"MEAN_MOTION_DOT":6.752e-5,"MEAN_MOTION_DDOT":0}]
